IRIDIUM 26              
1 24903U 97043A   25342.66120395  .00000729  00000+0  23805-3 0  9997
2 24903  86.3965  37.2773 0002018  98.2285 261.9142 14.37323077481804
IRIDIUM 22              
1 24907U 97043E   25342.66644605  .00000662  00000+0  22064-3 0  9998
2 24907  86.3969  40.9646 0002207  96.6865 263.4583 14.36117997481816
DUMMY MASS 1            
1 24925U 97048A   25342.70125706  .00000693  00000+0  73972-4 0  9993
2 24925  86.3349  54.5754 0004550 236.3364 123.7427 14.87177354531066
DUMMY MASS 2            
1 24926U 97048B   25342.96174322  .00000675  00000+0  72456-4 0  9996
2 24926  86.3348  56.0950 0005082 253.3440 106.7227 14.86928224530872
IRIDIUM 29              
1 24944U 97051A   25342.76539955  .00000902  00000+0  29995-3 0  9997
2 24944  86.3954  70.6121 0002280  93.4180 266.7278 14.36658224478338
IRIDIUM 33              
1 24946U 97051C   25342.80168775  .00000689  00000+0  23499-3 0  9997
2 24946  86.3870  69.8745 0006599 215.0125 145.0639 14.35033415477783
IRIDIUM 28              
1 24948U 97051E   25342.76810193  .00000822  00000+0  26780-3 0  9997
2 24948  86.3959  68.0267 0001773 107.7361 252.4030 14.37558089478927
IRIDIUM 36              
1 24967U 97056C   25342.84340307  .00000910  00000+0  29591-3 0  9998
2 24967  86.3956  99.6226 0002022 101.7638 258.3786 14.37779124477319
